CCSDS_OMM_VERS = 2.0
CREATION_DATE  = 
ORIGINATOR     = 

OBJECT_NAME    = UNKNOWN
OBJECT_ID      = 
CENTER_NAME    = EARTH
REF_FRAME      = TEME
TIME_SYSTEM    = UTC
MEAN_ELEMENT_THEORY = SGP/SGP4

EPOCH          = 2026-03-30T08:15:33.979392
MEAN_MOTION    = 14.01811866
ECCENTRICITY   = .0582604
INCLINATION    = 65.7907
RA_OF_ASC_NODE = 73.9163
ARG_OF_PERICENTER = 352.3816
MEAN_ANOMALY   = 6.8681

EPHEMERIS_TYPE = 0
CLASSIFICATION_TYPE = U
NORAD_CAT_ID   = 87690
ELEMENT_SET_NO = 999
REV_AT_EPOCH   = 62245
BSTAR          = .19734E-2
MEAN_MOTION_DOT = .13987E-3
MEAN_MOTION_DDOT = 0

CCSDS_OMM_VERS = 2.0
CREATION_DATE  = 
ORIGINATOR     = 

OBJECT_NAME    = UNKNOWN
OBJECT_ID      = 
CENTER_NAME    = EARTH
REF_FRAME      = TEME
TIME_SYSTEM    = UTC
MEAN_ELEMENT_THEORY = SGP/SGP4

EPOCH          = 2026-03-31T11:48:59.154912
MEAN_MOTION    = 14.65461884
ECCENTRICITY   = .0102279
INCLINATION    = 98.6754
RA_OF_ASC_NODE = 285.0155
ARG_OF_PERICENTER = 290.5050
MEAN_ANOMALY   = 98.8602

EPHEMERIS_TYPE = 0
CLASSIFICATION_TYPE = U
NORAD_CAT_ID   = 87706
ELEMENT_SET_NO = 999
REV_AT_EPOCH   = 59444
BSTAR          = .77679E-3
MEAN_MOTION_DOT = .4484E-4
MEAN_MOTION_DDOT = 0

CCSDS_OMM_VERS = 2.0
CREATION_DATE  = 
ORIGINATOR     = 

OBJECT_NAME    = UNKNOWN
OBJECT_ID      = 
CENTER_NAME    = EARTH
REF_FRAME      = TEME
TIME_SYSTEM    = UTC
MEAN_ELEMENT_THEORY = SGP/SGP4

EPOCH          = 2026-03-30T03:59:02.572800
MEAN_MOTION    = 15.13412988
ECCENTRICITY   = .0005982
INCLINATION    = 82.8701
RA_OF_ASC_NODE = 156.7162
ARG_OF_PERICENTER = 94.7512
MEAN_ANOMALY   = 265.4403

EPHEMERIS_TYPE = 0
CLASSIFICATION_TYPE = U
NORAD_CAT_ID   = 87725
ELEMENT_SET_NO = 999
REV_AT_EPOCH   = 65007
BSTAR          = .44045E-2
MEAN_MOTION_DOT = .79447E-3
MEAN_MOTION_DDOT = 0

CCSDS_OMM_VERS = 2.0
CREATION_DATE  = 
ORIGINATOR     = 

OBJECT_NAME    = UNKNOWN
OBJECT_ID      = 
CENTER_NAME    = EARTH
REF_FRAME      = TEME
TIME_SYSTEM    = UTC
MEAN_ELEMENT_THEORY = SGP/SGP4

EPOCH          = 2026-03-31T09:59:58.387200
MEAN_MOTION    = 13.74525291
ECCENTRICITY   = .0031171
INCLINATION    = 82.9467
RA_OF_ASC_NODE = 153.7150
ARG_OF_PERICENTER = 62.8054
MEAN_ANOMALY   = 297.6273

EPHEMERIS_TYPE = 0
CLASSIFICATION_TYPE = U
NORAD_CAT_ID   = 87730
ELEMENT_SET_NO = 999
REV_AT_EPOCH   = 60026
BSTAR          = .95403E-4
MEAN_MOTION_DOT = .106E-5
MEAN_MOTION_DDOT = 0

CCSDS_OMM_VERS = 2.0
CREATION_DATE  = 
ORIGINATOR     = 

OBJECT_NAME    = UNKNOWN
OBJECT_ID      = 
CENTER_NAME    = EARTH
REF_FRAME      = TEME
TIME_SYSTEM    = UTC
MEAN_ELEMENT_THEORY = SGP/SGP4

EPOCH          = 2026-03-30T09:13:49.787328
MEAN_MOTION    = 13.72360511
ECCENTRICITY   = .0132261
INCLINATION    = 99.3618
RA_OF_ASC_NODE = 323.7821
ARG_OF_PERICENTER = 269.0909
MEAN_ANOMALY   = 89.5084

EPHEMERIS_TYPE = 0
CLASSIFICATION_TYPE = U
NORAD_CAT_ID   = 87737
ELEMENT_SET_NO = 999
REV_AT_EPOCH   = 61862
BSTAR          = .91868E-4
MEAN_MOTION_DOT = .45E-6
MEAN_MOTION_DDOT = 0

CCSDS_OMM_VERS = 2.0
CREATION_DATE  = 
ORIGINATOR     = 

OBJECT_NAME    = UNKNOWN
OBJECT_ID      = 
CENTER_NAME    = EARTH
REF_FRAME      = TEME
TIME_SYSTEM    = UTC
MEAN_ELEMENT_THEORY = SGP/SGP4

EPOCH          = 2026-03-30T15:10:49.352160
MEAN_MOTION    = 14.36820910
ECCENTRICITY   = .0360276
INCLINATION    = 65.6699
RA_OF_ASC_NODE = 224.9922
ARG_OF_PERICENTER = 20.3393
MEAN_ANOMALY   = 355.6164

EPHEMERIS_TYPE = 0
CLASSIFICATION_TYPE = U
NORAD_CAT_ID   = 87764
ELEMENT_SET_NO = 999
REV_AT_EPOCH   = 63461
BSTAR          = .12077E-2
MEAN_MOTION_DOT = .7475E-4
MEAN_MOTION_DDOT = 0

CCSDS_OMM_VERS = 2.0
CREATION_DATE  = 
ORIGINATOR     = 

OBJECT_NAME    = UNKNOWN
OBJECT_ID      = 
CENTER_NAME    = EARTH
REF_FRAME      = TEME
TIME_SYSTEM    = UTC
MEAN_ELEMENT_THEORY = SGP/SGP4

EPOCH          = 2026-03-27T09:33:03.374208
MEAN_MOTION    = 13.19547386
ECCENTRICITY   = .0120021
INCLINATION    = 100.7427
RA_OF_ASC_NODE = 289.8293
ARG_OF_PERICENTER = 124.9780
MEAN_ANOMALY   = 236.2672

EPHEMERIS_TYPE = 0
CLASSIFICATION_TYPE = U
NORAD_CAT_ID   = 87771
ELEMENT_SET_NO = 999
REV_AT_EPOCH   = 54889
BSTAR          = .28744E-3
MEAN_MOTION_DOT = .73E-6
MEAN_MOTION_DDOT = 0

CCSDS_OMM_VERS = 2.0
CREATION_DATE  = 
ORIGINATOR     = 

OBJECT_NAME    = UNKNOWN
OBJECT_ID      = 
CENTER_NAME    = EARTH
REF_FRAME      = TEME
TIME_SYSTEM    = UTC
MEAN_ELEMENT_THEORY = SGP/SGP4

EPOCH          = 2026-03-30T10:41:42.731808
MEAN_MOTION    = 13.01096918
ECCENTRICITY   = .0063712
INCLINATION    = 102.3801
RA_OF_ASC_NODE = 340.4468
ARG_OF_PERICENTER = 3.1845
MEAN_ANOMALY   = 356.9646

EPHEMERIS_TYPE = 0
CLASSIFICATION_TYPE = U
NORAD_CAT_ID   = 87782
ELEMENT_SET_NO = 999
REV_AT_EPOCH   = 58199
BSTAR          = .13416E-1
MEAN_MOTION_DOT = .4088E-4
MEAN_MOTION_DDOT = 0

CCSDS_OMM_VERS = 2.0
CREATION_DATE  = 
ORIGINATOR     = 

OBJECT_NAME    = UNKNOWN
OBJECT_ID      = 
CENTER_NAME    = EARTH
REF_FRAME      = TEME
TIME_SYSTEM    = UTC
MEAN_ELEMENT_THEORY = SGP/SGP4

EPOCH          = 2026-03-31T13:35:20.615712
MEAN_MOTION    = 13.17038265
ECCENTRICITY   = .0242167
INCLINATION    = 99.6573
RA_OF_ASC_NODE = 200.5670
ARG_OF_PERICENTER = 111.7889
MEAN_ANOMALY   = 250.9181

EPHEMERIS_TYPE = 0
CLASSIFICATION_TYPE = U
NORAD_CAT_ID   = 87843
ELEMENT_SET_NO = 999
REV_AT_EPOCH   = 57848
BSTAR          = .33485E-2
MEAN_MOTION_DOT = .1461E-4
MEAN_MOTION_DDOT = 0

CCSDS_OMM_VERS = 2.0
CREATION_DATE  = 
ORIGINATOR     = 

OBJECT_NAME    = UNKNOWN
OBJECT_ID      = 
CENTER_NAME    = EARTH
REF_FRAME      = TEME
TIME_SYSTEM    = UTC
MEAN_ELEMENT_THEORY = SGP/SGP4

EPOCH          = 2026-03-30T19:11:52.117728
MEAN_MOTION    = 12.89440268
ECCENTRICITY   = .0579836
INCLINATION    = 98.8677
RA_OF_ASC_NODE = 31.1858
ARG_OF_PERICENTER = 4.9550
MEAN_ANOMALY   = 355.6968

EPHEMERIS_TYPE = 0
CLASSIFICATION_TYPE = U
NORAD_CAT_ID   = 87845
ELEMENT_SET_NO = 999
REV_AT_EPOCH   = 57913
BSTAR          = .80464E-2
MEAN_MOTION_DOT = .4368E-4
MEAN_MOTION_DDOT = 0

CCSDS_OMM_VERS = 2.0
CREATION_DATE  = 
ORIGINATOR     = 

OBJECT_NAME    = UNKNOWN
OBJECT_ID      = 
CENTER_NAME    = EARTH
REF_FRAME      = TEME
TIME_SYSTEM    = UTC
MEAN_ELEMENT_THEORY = SGP/SGP4

EPOCH          = 2026-03-28T02:16:51.556224
MEAN_MOTION    = 14.41626698
ECCENTRICITY   = .0033441
INCLINATION    = 99.1626
RA_OF_ASC_NODE = 219.0781
ARG_OF_PERICENTER = 316.1063
MEAN_ANOMALY   = 43.7468

EPHEMERIS_TYPE = 0
CLASSIFICATION_TYPE = U
NORAD_CAT_ID   = 87878
ELEMENT_SET_NO = 999
REV_AT_EPOCH   = 62647
BSTAR          = .94371E-3
MEAN_MOTION_DOT = .3044E-4
MEAN_MOTION_DDOT = 0

CCSDS_OMM_VERS = 2.0
CREATION_DATE  = 
ORIGINATOR     = 

OBJECT_NAME    = UNKNOWN
OBJECT_ID      = 
CENTER_NAME    = EARTH
REF_FRAME      = TEME
TIME_SYSTEM    = UTC
MEAN_ELEMENT_THEORY = SGP/SGP4

EPOCH          = 2026-03-31T00:38:15.082944
MEAN_MOTION    = 14.06068330
ECCENTRICITY   = .0154915
INCLINATION    = 98.7320
RA_OF_ASC_NODE = 195.0738
ARG_OF_PERICENTER = 123.4543
MEAN_ANOMALY   = 238.1546

EPHEMERIS_TYPE = 0
CLASSIFICATION_TYPE = U
NORAD_CAT_ID   = 87884
ELEMENT_SET_NO = 999
REV_AT_EPOCH   = 63358
BSTAR          = .16353E-3
MEAN_MOTION_DOT = .258E-5
MEAN_MOTION_DDOT = 0

