UNKNOWN                 
1 87690U          26089.34414328  .00013987  00000+0  19734-2 0  9997
2 87690  65.7907  73.9163 0582604 352.3816   6.8681 14.01811866622452
UNKNOWN                 
1 87706U          26090.49235133  .00004484  00000+0  77679-3 0  9993
2 87706  98.6754 285.0155 0102279 290.5050  98.8602 14.65461884594443
UNKNOWN                 
1 87725U          26089.16600200  .00079447  00000+0  44045-2 0  9998
2 87725  82.8701 156.7162 0005982  94.7512 265.4403 15.13412988650071
UNKNOWN                 
1 87730U          26090.41664800  .00000106  00000+0  95403-4 0  9992
2 87730  82.9467 153.7150 0031171  62.8054 297.6273 13.74525291600262
UNKNOWN                 
1 87737U          26089.38460402  .00000045  00000+0  91868-4 0  9998
2 87737  99.3618 323.7821 0132261 269.0909  89.5084 13.72360511618622
UNKNOWN                 
1 87764U          26089.63251565  .00007475  00000+0  12077-2 0  9991
2 87764  65.6699 224.9922 0360276  20.3393 355.6164 14.36820910634613
UNKNOWN                 
1 87771U          26086.39795572  .00000073  00000+0  28744-3 0  9996
2 87771 100.7427 289.8293 0120021 124.9780 236.2672 13.19547386548890
UNKNOWN                 
1 87782U          26089.44563347  .00004088  00000+0  13416-1 0  9998
2 87782 102.3801 340.4468 0063712   3.1845 356.9646 13.01096918581997
UNKNOWN                 
1 87843U          26090.56621083  .00001461  00000+0  33485-2 0  9994
2 87843  99.6573 200.5670 0242167 111.7889 250.9181 13.17038265578482
UNKNOWN                 
1 87845U          26089.79990877  .00004368  00000+0  80464-2 0  9997
2 87845  98.8677  31.1858 0579836   4.9550 355.6968 12.89440268579137
UNKNOWN                 
1 87878U          26087.09504116  .00003044  00000+0  94371-3 0  9994
2 87878  99.1626 219.0781 0033441 316.1063  43.7468 14.41626698626470
UNKNOWN                 
1 87884U          26090.02656346  .00000258  00000+0  16353-3 0  9999
2 87884  98.7320 195.0738 0154915 123.4543 238.1546 14.06068330633581
